{
  "type": "FeatureCollection",
  "features": [
    {
      "type": "Feature",
      "properties": {
        "norad_id": 41890,
        "name": "CYGFM07",
        "group": "weather",
        "lat": 32.19854582966998,
        "lon": 50.45050534258731,
        "alt_km": 414.17906896721524,
        "timestamp": "2025-12-25T22:42:16.639621+00:00",
        "meta_object_name": "CYGFM07",
        "meta_object_id": "2016-078G",
        "meta_epoch": "2025-12-25T02:08:18.875904",
        "meta_mean_motion": 15.50522977,
        "meta_eccentricity": 0.00093938,
        "meta_inclination": 34.9478,
        "meta_ra_of_asc_node": 300.4548,
        "meta_arg_of_pericenter": 319.9198,
        "meta_mean_anomaly": 40.083,
        "meta_ephemeris_type": 0,
        "meta_classification_type": "U",
        "meta_norad_cat_id": 41890,
        "meta_element_set_no": 999,
        "meta_rev_at_epoch": 50187,
        "meta_bstar": 0.00040403981,
        "meta_mean_motion_dot": 0.00023861,
        "meta_mean_motion_ddot": 0,
        "tle_line1": "1 41890U 16078G   25359.08910736  .00023861  00000+0  40404-3 0  9996",
        "tle_line2": "2 41890  34.9478 300.4548 0009393 319.9198  40.0830 15.50522977501876"
      },
      "geometry": {
        "type": "Point",
        "coordinates": [
          50.45050534258731,
          32.19854582966998
        ]
      }
    },
    {
      "type": "Feature",
      "properties": {
        "norad_id": 41891,
        "name": "CYGFM03",
        "group": "weather",
        "lat": -29.351869568224316,
        "lon": -116.89109290367759,
        "alt_km": 411.0957665802589,
        "timestamp": "2025-12-25T22:42:16.639631+00:00",
        "meta_object_name": "CYGFM03",
        "meta_object_id": "2016-078H",
        "meta_epoch": "2025-12-25T01:19:20.476704",
        "meta_mean_motion": 15.504147,
        "meta_eccentricity": 0.00092269,
        "meta_inclination": 34.9431,
        "meta_ra_of_asc_node": 302.6047,
        "meta_arg_of_pericenter": 306.7099,
        "meta_mean_anomaly": 53.2776,
        "meta_ephemeris_type": 0,
        "meta_classification_type": "U",
        "meta_norad_cat_id": 41891,
        "meta_element_set_no": 999,
        "meta_rev_at_epoch": 50184,
        "meta_bstar": 0.00039735587,
        "meta_mean_motion_dot": 0.00023373,
        "meta_mean_motion_ddot": 0,
        "tle_line1": "1 41891U 16078H   25359.05509811  .00023373  00000+0  39736-3 0  9996",
        "tle_line2": "2 41891  34.9431 302.6047 0009226 306.7099  53.2776 15.50414700501849"
      },
      "geometry": {
        "type": "Point",
        "coordinates": [
          -116.89109290367759,
          -29.351869568224316
        ]
      }
    },
    {
      "type": "Feature",
      "properties": {
        "norad_id": 43010,
        "name": "FENGYUN 3D",
        "group": "weather",
        "lat": 33.9464469903257,
        "lon": 152.57287987832984,
        "alt_km": 823.0602039618379,
        "timestamp": "2025-12-25T22:42:16.639642+00:00",
        "meta_object_name": "FENGYUN 3D",
        "meta_object_id": "2017-072A",
        "meta_epoch": "2025-12-25T18:38:19.550688",
        "meta_mean_motion": 14.19686085,
        "meta_eccentricity": 0.0001569,
        "meta_inclination": 98.9915,
        "meta_ra_of_asc_node": 326.2826,
        "meta_arg_of_pericenter": 145.7251,
        "meta_mean_anomaly": 214.4025,
        "meta_ephemeris_type": 0,
        "meta_classification_type": "U",
        "meta_norad_cat_id": 43010,
        "meta_element_set_no": 999,
        "meta_rev_at_epoch": 42038,
        "meta_bstar": -0.00011096,
        "meta_mean_motion_dot": -2.81e-06,
        "meta_mean_motion_ddot": 0,
        "tle_line1": "1 43010U 17072A   25359.77661517 -.00000281  00000+0 -11096-3 0  9991",
        "tle_line2": "2 43010  98.9915 326.2826 0001569 145.7251 214.4025 14.19686085420389"
      },
      "geometry": {
        "type": "Point",
        "coordinates": [
          152.57287987832984,
          33.9464469903257
        ]
      }
    },
    {
      "type": "Feature",
      "properties": {
        "norad_id": 43013,
        "name": "NOAA 20 (JPSS-1)",
        "group": "weather",
        "lat": -68.25887315691656,
        "lon": -41.14955782760975,
        "alt_km": 835.2866988793248,
        "timestamp": "2025-12-25T22:42:16.639653+00:00",
        "meta_object_name": "NOAA 20 (JPSS-1)",
        "meta_object_id": "2017-073A",
        "meta_epoch": "2025-12-25T17:57:32.738112",
        "meta_mean_motion": 14.19529147,
        "meta_eccentricity": 0.000207,
        "meta_inclination": 98.7616,
        "meta_ra_of_asc_node": 295.9037,
        "meta_arg_of_pericenter": 68.6577,
        "meta_mean_anomaly": 291.482,
        "meta_ephemeris_type": 0,
        "meta_classification_type": "U",
        "meta_norad_cat_id": 43013,
        "meta_element_set_no": 999,
        "meta_rev_at_epoch": 41986,
        "meta_bstar": 6.5762e-05,
        "meta_mean_motion_dot": 9.5e-07,
        "meta_mean_motion_ddot": 0,
        "tle_line1": "1 43013U 17073A   25359.74829558  .00000095  00000+0  65762-4 0  9994",
        "tle_line2": "2 43013  98.7616 295.9037 0002070  68.6577 291.4820 14.19529147419860"
      },
      "geometry": {
        "type": "Point",
        "coordinates": [
          -41.14955782760975,
          -68.25887315691656
        ]
      }
    },
    {
      "type": "Feature",
      "properties": {
        "norad_id": 43226,
        "name": "GOES 17",
        "group": "weather",
        "lat": -0.4852248965507947,
        "lon": -14.204486016761736,
        "alt_km": 35780.683626450686,
        "timestamp": "2025-12-25T22:42:16.639673+00:00",
        "meta_object_name": "GOES 17",
        "meta_object_id": "2018-022A",
        "meta_epoch": "2025-12-25T12:38:22.122816",
        "meta_mean_motion": 1.00271863,
        "meta_eccentricity": 0.0003138,
        "meta_inclination": 0.4887,
        "meta_ra_of_asc_node": 89.0412,
        "meta_arg_of_pericenter": 191.0543,
        "meta_mean_anomaly": 274.2832,
        "meta_ephemeris_type": 0,
        "meta_classification_type": "U",
        "meta_norad_cat_id": 43226,
        "meta_element_set_no": 999,
        "meta_rev_at_epoch": 2868,
        "meta_bstar": 0,
        "meta_mean_motion_dot": -1.61e-06,
        "meta_mean_motion_ddot": 0,
        "tle_line1": "1 43226U 18022A   25359.52664494 -.00000161  00000+0  00000+0 0  9991",
        "tle_line2": "2 43226   0.4887  89.0412 0003138 191.0543 274.2832  1.00271863 28688"
      },
      "geometry": {
        "type": "Point",
        "coordinates": [
          -14.204486016761736,
          -0.4852248965507947
        ]
      }
    },
    {
      "type": "Feature",
      "properties": {
        "norad_id": 43491,
        "name": "FENGYUN 2H",
        "group": "weather",
        "lat": 2.487971824760562,
        "lon": 154.55210476628355,
        "alt_km": 35786.81360826152,
        "timestamp": "2025-12-25T22:42:16.639686+00:00",
        "meta_object_name": "FENGYUN 2H",
        "meta_object_id": "2018-050A",
        "meta_epoch": "2025-12-25T19:20:18.558240",
        "meta_mean_motion": 1.00270337,
        "meta_eccentricity": 0.0002432,
        "meta_inclination": 2.5824,
        "meta_ra_of_asc_node": 81.1909,
        "meta_arg_of_pericenter": 166.7726,
        "meta_mean_anomaly": 216.0076,
        "meta_ephemeris_type": 0,
        "meta_classification_type": "U",
        "meta_norad_cat_id": 43491,
        "meta_element_set_no": 999,
        "meta_rev_at_epoch": 2770,
        "meta_bstar": 0,
        "meta_mean_motion_dot": -1.09e-06,
        "meta_mean_motion_ddot": 0,
        "tle_line1": "1 43491U 18050A   25359.80577035 -.00000109  00000+0  00000+0 0  9993",
        "tle_line2": "2 43491   2.5824  81.1909 0002432 166.7726 216.0076  1.00270337 27709"
      },
      "geometry": {
        "type": "Point",
        "coordinates": [
          154.55210476628355,
          2.487971824760562
        ]
      }
    },
    {
      "type": "Feature",
      "properties": {
        "norad_id": 43689,
        "name": "METOP-C",
        "group": "weather",
        "lat": 15.697737897787057,
        "lon": -120.02417303652493,
        "alt_km": 821.3656350734764,
        "timestamp": "2025-12-25T22:42:16.639697+00:00",
        "meta_object_name": "METOP-C",
        "meta_object_id": "2018-087A",
        "meta_epoch": "2025-12-25T16:52:03.446688",
        "meta_mean_motion": 14.21489235,
        "meta_eccentricity": 6.02e-05,
        "meta_inclination": 98.6911,
        "meta_ra_of_asc_node": 57.2726,
        "meta_arg_of_pericenter": 14.597,
        "meta_mean_anomaly": 345.5225,
        "meta_ephemeris_type": 0,
        "meta_classification_type": "U",
        "meta_norad_cat_id": 43689,
        "meta_element_set_no": 999,
        "meta_rev_at_epoch": 37018,
        "meta_bstar": 8.148e-05,
        "meta_mean_motion_dot": 1.35e-06,
        "meta_mean_motion_ddot": 0,
        "tle_line1": "1 43689U 18087A   25359.70281767  .00000135  00000+0  81480-4 0  9999",
        "tle_line2": "2 43689  98.6911  57.2726 0000602  14.5970 345.5225 14.21489235370183"
      },
      "geometry": {
        "type": "Point",
        "coordinates": [
          -120.02417303652493,
          15.697737897787057
        ]
      }
    }
  ]
}